ONEWEB-0209             
1 48215U 21031F   25284.18502780 -.00000235  00000+0 -66948-3 0  9996
2 48215  87.9053 339.3208 0002093  95.8774 264.2594 13.14502373215667
ONEWEB-0198             
1 48216U 21031G   25284.24541863 -.00000015  00000+0 -74351-4 0  9993
2 48216  87.9049 339.3073 0002322 104.4034 255.7354 13.14503085215787
ONEWEB-0189             
1 48217U 21031H   25284.10573857 -.00000178  00000+0 -51402-3 0  9998
2 48217  87.9049 339.3082 0002217 104.3432 255.7944 13.14502864215501
ONEWEB-0196             
1 48218U 21031J   25284.23577319  .00000153  00000+0  37835-3 0  9995
2 48218  87.9049 339.2979 0002033  99.1991 260.9369 13.14502896215529
ONEWEB-0183             
1 48219U 21031K   25284.21040400  .00000155  00000+0  38427-3 0  9990
2 48219  87.9039 339.3115 0001919  91.5055 268.6294 13.14502128215611
ONEWEB-0185             
1 48220U 21031L   25284.23655928  .00000093  00000+0  21771-3 0  9996
2 48220  87.9051 339.2742 0002183  90.2740 269.8640 13.14503988215548
ONEWEB-0187             
1 48221U 21031M   25284.21661630  .00000198  00000+0  49997-3 0  9998
2 48221  87.9049 339.3244 0002186  96.2718 263.8661 13.14503244215551
ONEWEB-0192             
1 48222U 21031N   25284.18661285 -.00000195  00000+0 -56023-3 0  9998
2 48222  87.9044 339.3227 0001899 100.7317 259.4026 13.14501591215463
ONEWEB-0219             
1 48223U 21031P   25284.16599913  .00000002  00000+0 -28001-4 0  9997
2 48223  87.9053 339.2998 0002136  94.6473 265.4901 13.14501726215668
ONEWEB-0202             
1 48224U 21031Q   25284.22309365  .00000261  00000+0  67051-3 0  9998
2 48224  87.9051 339.3030 0002462 112.4062 247.7329 13.14501888215655
ONEWEB-0204             
1 48225U 21031R   25284.10493955 -.00000155  00000+0 -45325-3 0  9999
2 48225  87.9044 339.3147 0001828  88.8542 271.2797 13.14502563215530
ONEWEB-0205             
1 48226U 21031S   25284.23260494  .00000146  00000+0  35881-3 0  9998
2 48226  87.9053 339.2818 0002062  96.1649 263.9716 13.14502398215564
ONEWEB-0206             
1 48227U 21031T   25284.20564205  .00000084  00000+0  19275-3 0  9993
2 48227  87.9056 339.2718 0001607 103.4760 256.6549 13.14503267215511
ONEWEB-0182             
1 48228U 21031U   25284.20088874  .00000006  00000+0 -17590-4 0  9991
2 48228  87.9041 339.3133 0001872  90.9861 269.1484 13.14501689215720
ONEWEB-0186             
1 48229U 21031V   25284.21198603  .00000215  00000+0  54496-3 0  9991
2 48229  87.9057 339.2770 0002018  97.5383 262.5976 13.14501758215673
ONEWEB-0181             
1 48230U 21031W   25284.18978766 -.00000129  00000+0 -38358-3 0  9990
2 48230  87.9041 339.3467 0002043 100.8083 259.3276 13.14502316215527
