[{"OBJECT_NAME":"ONEWEB-0209","OBJECT_ID":"2021-031F","EPOCH":"2025-10-11T04:26:26.401920","MEAN_MOTION":13.14502373,"ECCENTRICITY":0.0002093,"INCLINATION":87.9053,"RA_OF_ASC_NODE":339.3208,"ARG_OF_PERICENTER":95.8774,"MEAN_ANOMALY":264.2594,"EPHEMERIS_TYPE":0,"CLASSIFICATION_TYPE":"U","NORAD_CAT_ID":48215,"ELEMENT_SET_NO":999,"REV_AT_EPOCH":21566,"BSTAR":-0.00066947912,"MEAN_MOTION_DOT":-2.35e-6,"MEAN_MOTION_DDOT":0},{"OBJECT_NAME":"ONEWEB-0198","OBJECT_ID":"2021-031G","EPOCH":"2025-10-11T05:53:24.169632","MEAN_MOTION":13.14503085,"ECCENTRICITY":0.00023229,"INCLINATION":87.9049,"RA_OF_ASC_NODE":339.3073,"ARG_OF_PERICENTER":104.4034,"MEAN_ANOMALY":255.7354,"EPHEMERIS_TYPE":0,"CLASSIFICATION_TYPE":"U","NORAD_CAT_ID":48216,"ELEMENT_SET_NO":999,"REV_AT_EPOCH":21578,"BSTAR":-7.4350843e-5,"MEAN_MOTION_DOT":-1.5e-7,"MEAN_MOTION_DDOT":0},{"OBJECT_NAME":"ONEWEB-0189","OBJECT_ID":"2021-031H","EPOCH":"2025-10-11T02:32:15.812448","MEAN_MOTION":13.14502864,"ECCENTRICITY":0.00022174,"INCLINATION":87.9049,"RA_OF_ASC_NODE":339.3082,"ARG_OF_PERICENTER":104.3432,"MEAN_ANOMALY":255.7944,"EPHEMERIS_TYPE":0,"CLASSIFICATION_TYPE":"U","NORAD_CAT_ID":48217,"ELEMENT_SET_NO":999,"REV_AT_EPOCH":21550,"BSTAR":-0.00051402033,"MEAN_MOTION_DOT":-1.78e-6,"MEAN_MOTION_DDOT":0},{"OBJECT_NAME":"ONEWEB-0196","OBJECT_ID":"2021-031J","EPOCH":"2025-10-11T05:39:30.803616","MEAN_MOTION":13.14502896,"ECCENTRICITY":0.00020331,"INCLINATION":87.9049,"RA_OF_ASC_NODE":339.2979,"ARG_OF_PERICENTER":99.1991,"MEAN_ANOMALY":260.9369,"EPHEMERIS_TYPE":0,"CLASSIFICATION_TYPE":"U","NORAD_CAT_ID":48218,"ELEMENT_SET_NO":999,"REV_AT_EPOCH":21552,"BSTAR":0.00037834522,"MEAN_MOTION_DOT":1.53e-6,"MEAN_MOTION_DDOT":0},{"OBJECT_NAME":"ONEWEB-0183","OBJECT_ID":"2021-031K","EPOCH":"2025-10-11T05:02:58.905600","MEAN_MOTION":13.14502128,"ECCENTRICITY":0.00019197,"INCLINATION":87.9039,"RA_OF_ASC_NODE":339.3115,"ARG_OF_PERICENTER":91.5055,"MEAN_ANOMALY":268.6294,"EPHEMERIS_TYPE":0,"CLASSIFICATION_TYPE":"U","NORAD_CAT_ID":48219,"ELEMENT_SET_NO":999,"REV_AT_EPOCH":21561,"BSTAR":0.00038427398,"MEAN_MOTION_DOT":1.55e-6,"MEAN_MOTION_DDOT":0},{"OBJECT_NAME":"ONEWEB-0185","OBJECT_ID":"2021-031L","EPOCH":"2025-10-11T05:40:38.721792","MEAN_MOTION":13.14503988,"ECCENTRICITY":0.00021836,"INCLINATION":87.9051,"RA_OF_ASC_NODE":339.2742,"ARG_OF_PERICENTER":90.274,"MEAN_ANOMALY":269.864,"EPHEMERIS_TYPE":0,"CLASSIFICATION_TYPE":"U","NORAD_CAT_ID":48220,"ELEMENT_SET_NO":999,"REV_AT_EPOCH":21554,"BSTAR":0.00021771318,"MEAN_MOTION_DOT":9.3e-7,"MEAN_MOTION_DDOT":0},{"OBJECT_NAME":"ONEWEB-0187","OBJECT_ID":"2021-031M","EPOCH":"2025-10-11T05:11:55.648320","MEAN_MOTION":13.14503244,"ECCENTRICITY":0.0002186,"INCLINATION":87.9049,"RA_OF_ASC_NODE":339.3244,"ARG_OF_PERICENTER":96.2718,"MEAN_ANOMALY":263.8661,"EPHEMERIS_TYPE":0,"CLASSIFICATION_TYPE":"U","NORAD_CAT_ID":48221,"ELEMENT_SET_NO":999,"REV_AT_EPOCH":21555,"BSTAR":0.00049996689,"MEAN_MOTION_DOT":1.98e-6,"MEAN_MOTION_DDOT":0},{"OBJECT_NAME":"ONEWEB-0192","OBJECT_ID":"2021-031N","EPOCH":"2025-10-11T04:28:43.350240","MEAN_MOTION":13.14501591,"ECCENTRICITY":0.00018992,"INCLINATION":87.9044,"RA_OF_ASC_NODE":339.3227,"ARG_OF_PERICENTER":100.7317,"MEAN_ANOMALY":259.4026,"EPHEMERIS_TYPE":0,"CLASSIFICATION_TYPE":"U","NORAD_CAT_ID":48222,"ELEMENT_SET_NO":999,"REV_AT_EPOCH":21546,"BSTAR":-0.00056022534,"MEAN_MOTION_DOT":-1.95e-6,"MEAN_MOTION_DDOT":0},{"OBJECT_NAME":"ONEWEB-0219","OBJECT_ID":"2021-031P","EPOCH":"2025-10-11T03:59:02.324832","MEAN_MOTION":13.14501726,"ECCENTRICITY":0.0002136,"INCLINATION":87.9053,"RA_OF_ASC_NODE":339.2998,"ARG_OF_PERICENTER":94.6473,"MEAN_ANOMALY":265.4901,"EPHEMERIS_TYPE":0,"CLASSIFICATION_TYPE":"U","NORAD_CAT_ID":48223,"ELEMENT_SET_NO":999,"REV_AT_EPOCH":21566,"BSTAR":-2.800095e-5,"MEAN_MOTION_DOT":2.0e-8,"MEAN_MOTION_DDOT":0},{"OBJECT_NAME":"ONEWEB-0202","OBJECT_ID":"2021-031Q","EPOCH":"2025-10-11T05:21:15.291360","MEAN_MOTION":13.14501888,"ECCENTRICITY":0.00024629,"INCLINATION":87.9051,"RA_OF_ASC_NODE":339.303,"ARG_OF_PERICENTER":112.4062,"MEAN_ANOMALY":247.7329,"EPHEMERIS_TYPE":0,"CLASSIFICATION_TYPE":"U","NORAD_CAT_ID":48224,"ELEMENT_SET_NO":999,"REV_AT_EPOCH":21565,"BSTAR":0.00067050863,"MEAN_MOTION_DOT":2.61e-6,"MEAN_MOTION_DDOT":0},{"OBJECT_NAME":"ONEWEB-0204","OBJECT_ID":"2021-031R","EPOCH":"2025-10-11T02:31:06.777120","MEAN_MOTION":13.14502563,"ECCENTRICITY":0.00018289,"INCLINATION":87.9044,"RA_OF_ASC_NODE":339.3147,"ARG_OF_PERICENTER":88.8542,"MEAN_ANOMALY":271.2797,"EPHEMERIS_TYPE":0,"CLASSIFICATION_TYPE":"U","NORAD_CAT_ID":48225,"ELEMENT_SET_NO":999,"REV_AT_EPOCH":21553,"BSTAR":-0.00045324577,"MEAN_MOTION_DOT":-1.55e-6,"MEAN_MOTION_DDOT":0},{"OBJECT_NAME":"ONEWEB-0205","OBJECT_ID":"2021-031S","EPOCH":"2025-10-11T05:34:57.066816","MEAN_MOTION":13.14502398,"ECCENTRICITY":0.00020621,"INCLINATION":87.9053,"RA_OF_ASC_NODE":339.2818,"ARG_OF_PERICENTER":96.1649,"MEAN_ANOMALY":263.9716,"EPHEMERIS_TYPE":0,"CLASSIFICATION_TYPE":"U","NORAD_CAT_ID":48226,"ELEMENT_SET_NO":999,"REV_AT_EPOCH":21556,"BSTAR":0.00035881484,"MEAN_MOTION_DOT":1.46e-6,"MEAN_MOTION_DDOT":0},{"OBJECT_NAME":"ONEWEB-0206","OBJECT_ID":"2021-031T","EPOCH":"2025-10-11T04:56:07.473120","MEAN_MOTION":13.14503267,"ECCENTRICITY":0.00016077,"INCLINATION":87.9056,"RA_OF_ASC_NODE":339.2718,"ARG_OF_PERICENTER":103.476,"MEAN_ANOMALY":256.6549,"EPHEMERIS_TYPE":0,"CLASSIFICATION_TYPE":"U","NORAD_CAT_ID":48227,"ELEMENT_SET_NO":999,"REV_AT_EPOCH":21551,"BSTAR":0.00019274745,"MEAN_MOTION_DOT":8.4e-7,"MEAN_MOTION_DDOT":0},{"OBJECT_NAME":"ONEWEB-0182","OBJECT_ID":"2021-031U","EPOCH":"2025-10-11T04:49:16.787136","MEAN_MOTION":13.14501689,"ECCENTRICITY":0.00018725,"INCLINATION":87.9041,"RA_OF_ASC_NODE":339.3133,"ARG_OF_PERICENTER":90.9861,"MEAN_ANOMALY":269.1484,"EPHEMERIS_TYPE":0,"CLASSIFICATION_TYPE":"U","NORAD_CAT_ID":48228,"ELEMENT_SET_NO":999,"REV_AT_EPOCH":21572,"BSTAR":-1.758961e-5,"MEAN_MOTION_DOT":6.0e-8,"MEAN_MOTION_DDOT":0},{"OBJECT_NAME":"ONEWEB-0186","OBJECT_ID":"2021-031V","EPOCH":"2025-10-11T05:05:15.592992","MEAN_MOTION":13.14501758,"ECCENTRICITY":0.0002018,"INCLINATION":87.9057,"RA_OF_ASC_NODE":339.277,"ARG_OF_PERICENTER":97.5383,"MEAN_ANOMALY":262.5976,"EPHEMERIS_TYPE":0,"CLASSIFICATION_TYPE":"U","NORAD_CAT_ID":48229,"ELEMENT_SET_NO":999,"REV_AT_EPOCH":21567,"BSTAR":0.00054496172,"MEAN_MOTION_DOT":2.15e-6,"MEAN_MOTION_DDOT":0},{"OBJECT_NAME":"ONEWEB-0181","OBJECT_ID":"2021-031W","EPOCH":"2025-10-11T04:33:17.653824","MEAN_MOTION":13.14502316,"ECCENTRICITY":0.0002043,"INCLINATION":87.9041,"RA_OF_ASC_NODE":339.3467,"ARG_OF_PERICENTER":100.8083,"MEAN_ANOMALY":259.3276,"EPHEMERIS_TYPE":0,"CLASSIFICATION_TYPE":"U","NORAD_CAT_ID":48230,"ELEMENT_SET_NO":999,"REV_AT_EPOCH":21552,"BSTAR":-0.000383579,"MEAN_MOTION_DOT":-1.29e-6,"MEAN_MOTION_DDOT":0}]
